SL-8 R/B                
1 20775U 90078B   26061.98983187  .00016397  00000+0  48171-3 0  9992
2 20775  82.8990 257.3366 0363882  36.5052 326.0384 14.88795510808305
SL-8 R/B                
1 21088U 91006B   26061.88148520  .00000046  00000+0  30930-4 0  9994
2 21088  82.9463 175.1067 0023427  56.6915  65.6886 13.77493260763131
OKEAN-3                 
1 21397U 91039A   26062.16232901  .00003723  00000+0  26175-3 0  9992
2 21397  82.5201 343.1655 0014339   1.7263 358.4010 15.04747394864056
COSMOS 2151             
1 21422U 91042A   26062.14631432  .00002148  00000+0  16997-3 0  9996
2 21422  82.4930  89.9898 0014139  83.1105 277.1727 15.00073567862212
SL-14 R/B               
1 21423U 91042B   26062.00514396  .00000585  00000+0  71055-4 0  9991
2 21423  82.4910 226.4509 0015600 262.5444  97.3997 14.81821155852088
ERS-1                   
1 21574U 91050A   26062.02426083  .00000373  00000+0  13389-3 0  9994
2 21574  98.7885  80.0912 0031273 220.5217 139.3642 14.39443076814777
ARIANE 40 R/B           
1 21610U 91050F   26062.16041516  .00000350  00000+0  11721-3 0  9997
2 21610  98.2026 114.6416 0004357  95.3900 264.7788 14.42887827818052
INTERCOSMOS 25          
1 21819U 91086A   26062.13582232  .00001543  00000+0  29578-3 0  9993
2 21819  82.6064 313.9690 1487061 131.0519 242.9013 12.11978116495890
SL-8 R/B                
1 21876U 92008B   26062.11565973  .00000006  00000+0 -10117-4 0  9996
2 21876  82.9227 272.6698 0035217 151.2540 324.8285 13.75969816708510
SL-8 R/B                
1 21938U 92020B   26062.20957851  .00000084  00000+0  71201-4 0  9995
2 21938  82.9340 158.5714 0027922 317.6468  59.6723 13.75548569700247
USA 81                  
1 21949U 92023A   26062.16203221  .00000210  00000+0  70326-4 0  9998
2 21949  85.0098 135.2067 0002601  82.6295 277.5193 14.32365305 93853
COSMOS 2219             
1 22219U 92076A   26062.15457222  .00000295  00000+0  17951-3 0  9995
2 22219  71.0618  31.7282 0019345 215.7840 144.1988 14.14088793717457
SL-16 R/B               
1 22220U 92076B   26061.85836539  .00000095  00000+0  71182-4 0  9990
2 22220  70.9997 202.7622 0010647 108.9627   2.9705 14.16859712720863
COSMOS 2221             
1 22236U 92080A   26062.08327566  .00002025  00000+0  17727-3 0  9992
2 22236  82.5019 285.4101 0013466 210.3026 149.7419 14.96170383779805
SL-16 R/B               
1 22285U 92093B   26062.16717923 -.00000134  00000+0 -44478-4 0  9994
2 22285  71.0238  17.9570 0006277 300.6827  59.3677 14.15449558712237
COSMOS 2228             
1 22286U 92094A   26062.10400201  .00002840  00000+0  24305-3 0  9998
2 22286  82.5145 243.6173 0017216 328.1763  31.8417 14.97149568775074
SL-16 R/B               
1 22566U 93016B   26061.85357423  .00000336  00000+0  19677-3 0  9996
2 22566  71.0056 229.5391 0011310 323.6860  36.3494 14.15304662701208
